IRIDIUM 155             
1 43573U 18061E   20276.33475529  .00000074  00000-0  19371-4 0  9999
2 43573  86.4026 207.5366 0001992  68.4358 291.7050 14.34217864114677
IRIDIUM 154             
1 43574U 18061F   20276.31573173  .00000072  00000-0  18653-4 0  9992
2 43574  86.4030 207.5791 0002457  86.9064 273.2412 14.34217378114724
IRIDIUM 163             
1 43575U 18061G   20276.36647197  .00000067  00000-0  16844-4 0  9990
2 43575  86.4027 207.5366 0001949  99.0448 261.0968 14.34216396114703
IRIDIUM 156             
1 43576U 18061H   20276.34108424  .00000101  00000-0  28970-4 0  9996
2 43576  86.4025 207.5519 0001828  83.5618 276.5786 14.34215939114694
IRIDIUM 164             
1 43577U 18061J   20276.32207878  .00000075  00000-0  19855-4 0  9990
2 43577  86.4028 207.5687 0002295  88.4948 271.6511 14.34218089114739
IRIDIUM 159             
1 43578U 18061K   20276.36013203  .00000074  00000-0  19226-4 0  9993
2 43578  86.4026 207.5333 0002354  86.4807 273.6658 14.34217176114701
IRIDIUM 180             
1 43922U 19002A   20276.35962841  .00000096  00000-0  27367-4 0  9991
2 43922  86.3980 144.4711 0002879 103.3010 256.8507 14.34217560 90311
IRIDIUM 176             
1 43923U 19002B   20276.20113981  .00000178  00000-0  24304-4 0  9998
2 43923  86.6117 144.5677 0002434  88.7775 271.3721 14.72254486 92637
IRIDIUM 168             
1 43924U 19002C   20276.35328027  .00000097  00000-0  27602-4 0  9998
2 43924  86.3983 144.4921 0002348  88.6702 271.4763 14.34217568 90295
IRIDIUM 173             
1 43925U 19002D   20276.34058615  .00000102  00000-0  29263-4 0  9993
2 43925  86.3979 144.4711 0002218  89.3429 270.8021 14.34216388 90286
IRIDIUM 169             
1 43926U 19002E   20276.43092946  .00000114  00000-0  30863-4 0  9990
2 43926  86.4292 175.9861 0005811  21.4021 338.7419 14.38609955 90643
IRIDIUM 172             
1 43927U 19002F   20276.33425130  .00000102  00000-0  29185-4 0  9997
2 43927  86.3980 144.4752 0002299  90.8165 269.3294 14.34218089 90283
IRIDIUM 175             
1 43928U 19002G   20276.39885359  .00000183  00000-0  25081-4 0  9997
2 43928  86.6100 144.3559 0001544  93.6597 266.4796 14.72254616 92653
IRIDIUM 171             
1 43929U 19002H   20276.38498967  .00000094  00000-0  26589-4 0  9997
2 43929  86.3989 144.5287 0002350  87.9895 272.1570 14.34217646 90280
IRIDIUM 170             
1 43930U 19002J   20276.34319649  .00000174  00000-0  23651-4 0  9990
2 43930  86.6116 144.5152 0002264  93.8295 266.3181 14.72260554 92667
IRIDIUM 167             
1 43931U 19002K   20276.37865064  .00000100  00000-0  28562-4 0  9996
2 43931  86.3981 144.4607 0002798  99.0527 261.0985 14.34218002 90286
